{
  "type": "FeatureCollection",
  "features": [
    {
      "type": "Feature",
      "properties": {
        "norad_id": 44334,
        "name": "EUTELSAT 7C",
        "group": "eutelsat",
        "lat": 0.06029992993374676,
        "lon": -73.25658413003511,
        "alt_km": 35778.185336909984,
        "timestamp": "2025-12-02T13:52:16.946932+00:00",
        "meta_object_name": "EUTELSAT 7C",
        "meta_object_id": "2019-034B",
        "meta_epoch": "2025-12-02T03:32:42.105120",
        "meta_mean_motion": 1.00269329,
        "meta_eccentricity": 0.0003345,
        "meta_inclination": 0.0767,
        "meta_ra_of_asc_node": 181.5669,
        "meta_arg_of_pericenter": 52.1186,
        "meta_mean_anomaly": 257.7397,
        "meta_ephemeris_type": 0,
        "meta_classification_type": "U",
        "meta_norad_cat_id": 44334,
        "meta_element_set_no": 999,
        "meta_rev_at_epoch": 486,
        "meta_bstar": 0,
        "meta_mean_motion_dot": 6.9e-07,
        "meta_mean_motion_ddot": 0,
        "tle_line1": "1 44334U 19034B   25336.14770955  .00000069  00000+0  00000+0 0  9995",
        "tle_line2": "2 44334   0.0767 181.5669 0003345  52.1186 257.7397  1.00269329  4864"
      },
      "geometry": {
        "type": "Point",
        "coordinates": [
          -73.25658413003511,
          0.06029992993374676
        ]
      }
    },
    {
      "type": "Feature",
      "properties": {
        "norad_id": 44624,
        "name": "EUTELSAT 5 WEST B",
        "group": "eutelsat",
        "lat": -0.07173398596419985,
        "lon": -85.24973579525185,
        "alt_km": 35771.61062006531,
        "timestamp": "2025-12-02T13:52:16.946943+00:00",
        "meta_object_name": "EUTELSAT 5 WEST B",
        "meta_object_id": "2019-067A",
        "meta_epoch": "2025-12-02T05:11:59.365248",
        "meta_mean_motion": 1.00272647,
        "meta_eccentricity": 0.00036375,
        "meta_inclination": 0.0731,
        "meta_ra_of_asc_node": 325.8085,
        "meta_arg_of_pericenter": 286.433,
        "meta_mean_anomaly": 252.0904,
        "meta_ephemeris_type": 0,
        "meta_classification_type": "U",
        "meta_norad_cat_id": 44624,
        "meta_element_set_no": 999,
        "meta_rev_at_epoch": 2246,
        "meta_bstar": 0,
        "meta_mean_motion_dot": -2.1e-07,
        "meta_mean_motion_ddot": 0,
        "tle_line1": "1 44624U 19067A   25336.21665932 -.00000021  00000+0  00000+0 0  9998",
        "tle_line2": "2 44624   0.0731 325.8085 0003637 286.4330 252.0904  1.00272647 22464"
      },
      "geometry": {
        "type": "Point",
        "coordinates": [
          -85.24973579525185,
          -0.07173398596419985
        ]
      }
    },
    {
      "type": "Feature",
      "properties": {
        "norad_id": 45027,
        "name": "EUTELSAT KONNECT",
        "group": "eutelsat",
        "lat": -0.026651735380685704,
        "lon": -73.09758779581068,
        "alt_km": 35779.95838455276,
        "timestamp": "2025-12-02T13:52:16.946954+00:00",
        "meta_object_name": "EUTELSAT KONNECT",
        "meta_object_id": "2020-005B",
        "meta_epoch": "2025-12-02T00:48:38.717280",
        "meta_mean_motion": 1.00267792,
        "meta_eccentricity": 0.00017096,
        "meta_inclination": 0.0682,
        "meta_ra_of_asc_node": 99.0592,
        "meta_arg_of_pericenter": 188.9784,
        "meta_mean_anomaly": 162.455,
        "meta_ephemeris_type": 0,
        "meta_classification_type": "U",
        "meta_norad_cat_id": 45027,
        "meta_element_set_no": 999,
        "meta_rev_at_epoch": 2235,
        "meta_bstar": 0,
        "meta_mean_motion_dot": 7e-07,
        "meta_mean_motion_ddot": 0,
        "tle_line1": "1 45027U 20005B   25336.03378145  .00000070  00000+0  00000+0 0  9990",
        "tle_line2": "2 45027   0.0682  99.0592 0001709 188.9784 162.4550  1.00267792 22351"
      },
      "geometry": {
        "type": "Point",
        "coordinates": [
          -73.09758779581068,
          -0.026651735380685704
        ]
      }
    },
    {
      "type": "Feature",
      "properties": {
        "norad_id": 49056,
        "name": "EUTELSAT QUANTUM",
        "group": "eutelsat",
        "lat": -0.006506183691947327,
        "lon": -32.53054733696148,
        "alt_km": 35778.9659395664,
        "timestamp": "2025-12-02T13:52:16.946966+00:00",
        "meta_object_name": "EUTELSAT QUANTUM",
        "meta_object_id": "2021-069B",
        "meta_epoch": "2025-12-02T03:44:18.492576",
        "meta_mean_motion": 1.00271228,
        "meta_eccentricity": 0.00036855,
        "meta_inclination": 0.0151,
        "meta_ra_of_asc_node": 1.9478,
        "meta_arg_of_pericenter": 263.2618,
        "meta_mean_anomaly": 269.8413,
        "meta_ephemeris_type": 0,
        "meta_classification_type": "U",
        "meta_norad_cat_id": 49056,
        "meta_element_set_no": 999,
        "meta_rev_at_epoch": 1595,
        "meta_bstar": 0,
        "meta_mean_motion_dot": 1.47e-06,
        "meta_mean_motion_ddot": 0,
        "tle_line1": "1 49056U 21069B   25336.15576959  .00000147  00000+0  00000+0 0  9998",
        "tle_line2": "2 49056   0.0151   1.9478 0003685 263.2618 269.8413  1.00271228 15958"
      },
      "geometry": {
        "type": "Point",
        "coordinates": [
          -32.53054733696148,
          -0.006506183691947327
        ]
      }
    },
    {
      "type": "Feature",
      "properties": {
        "norad_id": 53765,
        "name": "EUTELSAT KONNECT VHTS",
        "group": "eutelsat",
        "lat": -0.018226129615489597,
        "lon": -77.55602665993305,
        "alt_km": 35780.1071126949,
        "timestamp": "2025-12-02T13:52:16.946977+00:00",
        "meta_object_name": "EUTELSAT KONNECT VHTS",
        "meta_object_id": "2022-110A",
        "meta_epoch": "2025-12-02T05:14:14.150112",
        "meta_mean_motion": 1.00268587,
        "meta_eccentricity": 0.00027236,
        "meta_inclination": 0.0571,
        "meta_ra_of_asc_node": 108.6218,
        "meta_arg_of_pericenter": 120.1049,
        "meta_mean_anomaly": 283.8579,
        "meta_ephemeris_type": 0,
        "meta_classification_type": "U",
        "meta_norad_cat_id": 53765,
        "meta_element_set_no": 999,
        "meta_rev_at_epoch": 485,
        "meta_bstar": 0,
        "meta_mean_motion_dot": 3.8e-07,
        "meta_mean_motion_ddot": 0,
        "tle_line1": "1 53765U 22110A   25336.21821933  .00000038  00000+0  00000+0 0  9999",
        "tle_line2": "2 53765   0.0571 108.6218 0002723 120.1049 283.8579  1.00268587  4854"
      },
      "geometry": {
        "type": "Point",
        "coordinates": [
          -77.55602665993305,
          -0.018226129615489597
        ]
      }
    },
    {
      "type": "Feature",
      "properties": {
        "norad_id": 54048,
        "name": "EUTELSAT HOTBIRD 13F",
        "group": "eutelsat",
        "lat": -0.0025122208078858055,
        "lon": -67.29759805004588,
        "alt_km": 35782.66501328249,
        "timestamp": "2025-12-02T13:52:16.946989+00:00",
        "meta_object_name": "EUTELSAT HOTBIRD 13F",
        "meta_object_id": "2022-134A",
        "meta_epoch": "2025-12-01T22:26:58.691328",
        "meta_mean_motion": 1.00270089,
        "meta_eccentricity": 0.00020693,
        "meta_inclination": 0.0548,
        "meta_ra_of_asc_node": 289.3102,
        "meta_arg_of_pericenter": 67.0046,
        "meta_mean_anomaly": 64.4812,
        "meta_ephemeris_type": 0,
        "meta_classification_type": "U",
        "meta_norad_cat_id": 54048,
        "meta_element_set_no": 999,
        "meta_rev_at_epoch": 1139,
        "meta_bstar": 0,
        "meta_mean_motion_dot": 1.08e-06,
        "meta_mean_motion_ddot": 0,
        "tle_line1": "1 54048U 22134A   25335.93540152  .00000108  00000+0  00000+0 0  9997",
        "tle_line2": "2 54048   0.0548 289.3102 0002069  67.0046  64.4812  1.00270089 11391"
      },
      "geometry": {
        "type": "Point",
        "coordinates": [
          -67.29759805004588,
          -0.0025122208078858055
        ]
      }
    },
    {
      "type": "Feature",
      "properties": {
        "norad_id": 54225,
        "name": "EUTELSAT HOTBIRD 13G",
        "group": "eutelsat",
        "lat": 0.028870872813876552,
        "lon": -67.25339596426542,
        "alt_km": 35788.332969891584,
        "timestamp": "2025-12-02T13:52:16.947000+00:00",
        "meta_object_name": "EUTELSAT HOTBIRD 13G",
        "meta_object_id": "2022-146A",
        "meta_epoch": "2025-12-02T00:40:38.514720",
        "meta_mean_motion": 1.0027224,
        "meta_eccentricity": 0.00020869,
        "meta_inclination": 0.0472,
        "meta_ra_of_asc_node": 239.1671,
        "meta_arg_of_pericenter": 307.1755,
        "meta_mean_anomaly": 267.9561,
        "meta_ephemeris_type": 0,
        "meta_classification_type": "U",
        "meta_norad_cat_id": 54225,
        "meta_element_set_no": 999,
        "meta_rev_at_epoch": 548,
        "meta_bstar": 0,
        "meta_mean_motion_dot": 1.09e-06,
        "meta_mean_motion_ddot": 0,
        "tle_line1": "1 54225U 22146A   25336.02822355  .00000109  00000+0  00000+0 0  9997",
        "tle_line2": "2 54225   0.0472 239.1671 0002086 307.1755 267.9561  1.00272240  5487"
      },
      "geometry": {
        "type": "Point",
        "coordinates": [
          -67.25339596426542,
          0.028870872813876552
        ]
      }
    }
  ]
}